NORAD_CAT_ID,OBJECT_NAME,OBJECT_TYPE,EPOCH,MEAN_MOTION,ECCENTRICITY,INCLINATION,RA_OF_ASC_NODE,ARG_OF_PERICENTER,MEAN_ANOMALY,BSTAR,MEAN_MOTION_DOT,MEAN_MOTION_DDOT,TLE_LINE0,TLE_LINE1,TLE_LINE2,SEMIMAJOR_AXIS,PERIOD,APOGEE,PERIGEE,DECAYED
52301.0,STARLINK-3768,PAYLOAD,2023-07-16 23:14:33,15.08844699,0.0001142,53.2169,118.9001,103.9464,256.1655,-2.0721e-05,-6.18e-06,0.0,0 STARLINK-3768,1 52301U 22041AS  23197.96844031 -.00000618  00000-0 -20721-4 0  9990,2 52301  53.2169 118.9001 0001142 103.9464 256.1655 15.08844699 69777,6917.866,95.437,540.521,538.941,0.0
52301.0,STARLINK-3768,PAYLOAD,2023-07-17 11:57:37,15.08851045,0.000111,53.2171,116.5217,89.7045,270.4074,-2.2234e-06,-3.23e-06,0.0,0 STARLINK-3768,1 52301U 22041AS  23198.49835431 -.00000323  00000-0 -22234-5 0  9998,2 52301  53.2171 116.5217 0001110  89.7045 270.4074 15.08851045 69850,6917.847,95.437,540.48,538.944,0.0
52301.0,STARLINK-3768,PAYLOAD,2023-07-19 02:06:54,15.08838501,0.0001395,53.2177,109.3865,83.2865,276.8286,-2.8804e-05,-7.46e-06,0.0,0 STARLINK-3768,1 52301U 22041AS  23200.08812522 -.00000746  00000-0 -28804-4 0  9990,2 52301  53.2177 109.3865 0001395  83.2865 276.8286 15.08838501 70094,6917.885,95.438,540.715,538.785,0.0
52301.0,STARLINK-3768,PAYLOAD,2023-07-20 17:51:32,15.08833755,0.0001221,53.2175,101.9504,89.8381,270.2751,5.1644e-05,5.34e-06,0.0,0 STARLINK-3768,1 52301U 22041AS  23201.74412846  .00000534  00000-0  51644-4 0  9990,2 52301  53.2175 101.9504 0001221  89.8381 270.2751 15.08833755 70342,6917.899,95.438,540.609,538.92,0.0
52301.0,STARLINK-3768,PAYLOAD,2023-07-21 01:48:27,15.08839295,0.0001488,53.2188,100.4635,83.6796,276.4365,0.00010056,1.313e-05,0.0,0 STARLINK-3768,1 52301U 22041AS  23202.07532402  .00001313  00000-0  10056-3 0  9995,2 52301  53.2188 100.4635 0001488  83.6796 276.4365 15.08839295 70391,6917.883,95.438,540.777,538.718,0.0
52301.0,STARLINK-3768,PAYLOAD,2023-07-24 01:20:49,15.08839919,0.0001184,53.2175,87.0834,89.234,270.8788,1.3901e-05,-6.7e-07,0.0,0 STARLINK-3768,1 52301U 22041AS  23205.05613255 -.00000067  00000-0  13901-4 0  9991,2 52301  53.2175  87.0834 0001184  89.2340 270.8788 15.08839919 69633,6917.881,95.438,540.565,538.927,0.0
52301.0,STARLINK-3768,PAYLOAD,2023-07-25 01:11:36,15.0884627,0.0001548,53.2179,82.6241,110.5951,249.5208,6.9954e-05,8.26e-06,0.0,0 STARLINK-3768,1 52301U 22041AS  23206.04972786  .00000826  00000-0  69954-4 0  9999,2 52301  53.2179  82.6241 0001548 110.5951 249.5208 15.08846270 69784,6917.861,95.437,540.797,538.655,0.0
52301.0,STARLINK-3768,PAYLOAD,2023-07-25 23:27:00,15.08836631,0.0001496,53.2184,78.4637,78.4264,281.6896,0.00012584,1.715e-05,0.0,0 STARLINK-3768,1 52301U 22041AS  23206.97709431  .00001715  00000-0  12584-3 0  9990,2 52301  53.2184  78.4637 0001496  78.4264 281.6896 15.08836631 69929,6917.891,95.438,540.791,538.721,0.0
52301.0,STARLINK-3768,PAYLOAD,2023-07-26 21:42:23,15.08847392,0.0001834,53.2174,74.2978,102.5498,257.57,0.00024633,3.635e-05,0.0,0 STARLINK-3768,1 52301U 22041AS  23207.90443839  .00003635  00000-0  24633-3 0  9992,2 52301  53.2174  74.2978 0001834 102.5498 257.5700 15.08847392 70063,6917.858,95.437,540.992,538.454,0.0
52301.0,STARLINK-3768,PAYLOAD,2023-07-27 00:53:08,15.08875687,0.0001066,53.2173,73.7023,84.3357,275.7757,0.00027714,4.13e-05,0.0,0 STARLINK-3768,1 52301U 22041AS  23208.03689978  .00004130  00000-0  27714-3 0  9997,2 52301  53.2173  73.7023 0001066  84.3357 275.7757 15.08875687 71293,6917.771,95.435,540.374,538.899,0.0
52301.0,STARLINK-3768,PAYLOAD,2023-07-27 16:47:02,15.08837603,9.67e-05,53.2174,70.728,114.9632,245.1461,-4.8225e-05,-1.055e-05,0.0,0 STARLINK-3768,1 52301U 22041AS  23208.69932884 -.00001055  00000-0 -48225-4 0  9992,2 52301  53.2174  70.7280 0000967 114.9632 245.1461 15.08837603 71391,6917.888,95.438,540.422,539.084,0.0
52301.0,STARLINK-3768,PAYLOAD,2023-07-27 21:33:11,15.08837512,9.75e-05,53.2174,69.8373,100.5685,259.5417,-2.8607e-05,-7.43e-06,0.0,0 STARLINK-3768,1 52301U 22041AS  23208.89804899 -.00000743  00000-0 -28607-4 0  9993,2 52301  53.2174  69.8373 0000975 100.5685 259.5417 15.08837512 70210,6917.888,95.438,540.427,539.078,0.0
52301.0,STARLINK-3768,PAYLOAD,2023-07-28 02:19:20,15.0883898,0.0001033,53.2175,68.9439,117.5681,242.5416,-2.9717e-05,-7.61e-06,0.0,0 STARLINK-3768,1 52301U 22041AS  23209.09676730 -.00000761  00000-0 -29717-4 0  9990,2 52301  53.2175  68.9439 0001033 117.5681 242.5416 15.08838980 70248,6917.884,95.438,540.463,539.034,0.0
52301.0,STARLINK-3768,PAYLOAD,2023-07-28 21:23:58,15.08842773,0.0001094,53.218,65.3777,104.1622,255.9492,-0.00019743,-3.429e-05,0.0,0 STARLINK-3768,1 52301U 22041AS  23209.89165229 -.00003429  00000-0 -19743-3 0  9995,2 52301  53.2180  65.3777 0001094 104.1622 255.9492 15.08842773 71578,6917.872,95.437,540.494,538.98,0.0
52301.0,STARLINK-3768,PAYLOAD,2023-07-30 00:25:31,15.08847857,0.0001495,53.2172,60.3217,120.9029,239.2111,0.0003775,5.726e-05,0.0,0 STARLINK-3768,1 52301U 22041AS  23211.01773036  .00005726  00000-0  37750-3 0  9991,2 52301  53.2172  60.3217 0001495 120.9029 239.2111 15.08847857 71745,6917.856,95.437,540.756,538.687,0.0
52301.0,STARLINK-3768,PAYLOAD,2023-07-30 17:54:46,15.08836692,0.0001252,53.2197,57.0542,117.6846,242.4274,6.4511e-05,7.39e-06,0.0,0 STARLINK-3768,1 52301U 22041AS  23211.74637700  .00000739  00000-0  64511-4 0  9993,2 52301  53.2197  57.0542 0001252 117.6846 242.4274 15.08836692 71850,6917.891,95.438,540.622,538.889,0.0
52301.0,STARLINK-3768,PAYLOAD,2023-07-31 01:51:42,15.0884637,8.11e-05,53.2163,55.5635,97.0773,263.0311,0.00025026,3.698e-05,0.0,0 STARLINK-3768,1 52301U 22041AS  23212.07757366  .00003698  00000-0  25026-3 0  9995,2 52301  53.2163  55.5635 0000811  97.0773 263.0311 15.08846370 71900,6917.861,95.437,540.287,539.165,0.0
52301.0,STARLINK-3768,PAYLOAD,2023-07-31 17:45:34,15.08838944,9.91e-05,53.2164,52.5909,89.5628,270.5478,3.3274e-05,2.42e-06,0.0,0 STARLINK-3768,1 52301U 22041AS  23212.73997761  .00000242  00000-0  33274-4 0  9990,2 52301  53.2164  52.5909 0000991  89.5628 270.5478 15.08838944 72003,6917.884,95.438,540.434,539.063,0.0
52301.0,STARLINK-3768,PAYLOAD,2023-08-01 20:47:07,15.08842642,0.0001017,53.216,47.535,77.088,283.0226,0.00020891,3.039e-05,0.0,0 STARLINK-3768,1 52301U 22041AS  23213.86605996  .00003039  00000-0  20891-3 0  9998,2 52301  53.2160  47.5350 0001017  77.0880 283.0226 15.08842642 72173,6917.872,95.437,540.441,539.034,0.0
52301.0,STARLINK-3768,PAYLOAD,2023-08-02 23:48:40,15.08858616,9.48e-05,53.2162,42.4791,88.7854,271.3246,0.00042792,6.533e-05,0.0,0 STARLINK-3768,1 52301U 22041AS  23214.99213183  .00006533  00000-0  42792-3 0  9992,2 52301  53.2162  42.4791 0000948  88.7854 271.3246 15.08858616 72349,6917.823,95.436,540.344,539.033,0.0
52301.0,STARLINK-3768,PAYLOAD,2023-08-03 18:53:18,15.08837434,0.0001033,53.2172,38.9099,93.7764,266.3346,2.424e-05,9.8e-07,0.0,0 STARLINK-3768,1 52301U 22041AS  23215.78702153  .00000098  00000-0  24240-4 0  9999,2 52301  53.2172  38.9099 0001033  93.7764 266.3346 15.08837434 72466,6917.888,95.438,540.468,539.039,0.0
52301.0,STARLINK-3768,PAYLOAD,2023-08-04 18:44:05,15.08851658,0.0001348,53.2185,34.4477,136.0064,224.1035,-0.00014183,-2.545e-05,0.0,0 STARLINK-3768,1 52301U 22041AS  23216.78061521 -.00002545  00000-0 -14183-3 0  9992,2 52301  53.2185  34.4477 0001348 136.0064 224.1035 15.08851658 72612,6917.845,95.437,540.642,538.777,0.0
52301.0,STARLINK-3768,PAYLOAD,2023-08-05 23:21:01,15.08871864,0.0001,53.2184,29.0977,76.9202,283.1902,0.00068705,0.00010673,0.0,0 STARLINK-3768,1 52301U 22041AS  23217.97292845  .00010673  00000-0  68705-3 0  9997,2 52301  53.2184  29.0977 0001000  76.9202 283.1902 15.08871864 72795,6917.783,95.436,540.34,538.956,0.0
52301.0,STARLINK-3768,PAYLOAD,2023-08-06 18:25:40,15.08818439,7.99e-05,53.2184,25.5305,88.427,271.6813,-0.00035842,-5.984e-05,0.0,0 STARLINK-3768,1 52301U 22041AS  23218.76783194 -.00005984  00000-0 -35842-3 0  9994,2 52301  53.2184  25.5305 0000799  88.4270 271.6813 15.08818439 72914,6917.946,95.439,540.364,539.259,0.0
52301.0,STARLINK-3768,PAYLOAD,2023-08-07 10:19:32,15.08826236,7.13e-05,53.2181,22.5555,95.7035,264.4038,0.0001407,1.951e-05,0.0,0 STARLINK-3768,1 52301U 22041AS  23219.43023763  .00001951  00000-0  14070-3 0  9996,2 52301  53.2181  22.5555 0000713  95.7035 264.4038 15.08826236 73016,6917.922,95.438,540.281,539.294,0.0
52301.0,STARLINK-3768,PAYLOAD,2023-08-07 23:02:37,15.08855803,6.76e-05,53.2175,20.177,98.1364,261.9705,0.0013805,0.0002176,0.0,0 STARLINK-3768,1 52301U 22041AS  23219.96015887  .00021760  00000-0  13805-2 0  9996,2 52301  53.2175  20.1770 0000676  98.1364 261.9705 15.08855803 73095,6917.832,95.437,540.165,539.229,0.0
52301.0,STARLINK-3768,PAYLOAD,2023-08-08 22:53:23,15.08878761,5.4e-05,53.2166,15.7155,83.7514,276.354,0.0009472,0.00014835,0.0,0 STARLINK-3768,1 52301U 22041AS  23220.95374276  .00014835  00000-0  94720-3 0  9998,2 52301  53.2166  15.7155 0000540  83.7514 276.3540 15.08878761 73241,6917.762,95.435,540.0,539.253,0.0
52301.0,STARLINK-3768,PAYLOAD,2023-08-09 16:22:38,15.08851641,7.49e-05,53.2167,12.4457,51.4759,308.63,0.00038037,5.773e-05,0.0,0 STARLINK-3768,1 52301U 22041AS  23221.68238828  .00005773  00000-0  38037-3 0  9991,2 52301  53.2167  12.4457 0000749  51.4759 308.6300 15.08851641 73358,6917.845,95.437,540.228,539.192,0.0
52301.0,STARLINK-3768,PAYLOAD,2023-08-10 09:51:53,15.08843956,0.0001088,53.215,9.1761,66.1681,293.9425,0.00056954,8.789e-05,0.0,0 STARLINK-3768,1 52301U 22041AS  23222.41103340  .00008789  00000-0  56954-3 0  9991,2 52301  53.2150   9.1761 0001088  66.1681 293.9425 15.08843956 73461,6917.868,95.437,540.486,538.981,0.0
52301.0,STARLINK-3768,PAYLOAD,2023-08-11 09:42:40,15.08844581,7.93e-05,53.2174,4.7141,71.9517,288.1562,0.00029163,4.357e-05,0.0,0 STARLINK-3768,1 52301U 22041AS  23223.40463153  .00004357  00000-0  29163-3 0  9991,2 52301  53.2174   4.7141 0000793  71.9517 288.1562 15.08844581 73614,6917.866,95.437,540.28,539.183,0.0
